NORAD_CAT_ID,OBJECT_NAME,OBJECT_TYPE,EPOCH,MEAN_MOTION,ECCENTRICITY,INCLINATION,RA_OF_ASC_NODE,ARG_OF_PERICENTER,MEAN_ANOMALY,BSTAR,MEAN_MOTION_DOT,MEAN_MOTION_DDOT,TLE_LINE0,TLE_LINE1,TLE_LINE2,SEMIMAJOR_AXIS,PERIOD,APOGEE,PERIGEE,DECAYED
52857.0,STARLINK-4199,PAYLOAD,2023-12-16 10:59:43,15.08842476,0.0001587,53.2188,79.3474,111.3308,248.7853,7.4401e-05,8.96e-06,0.0,0 STARLINK-4199,1 52857U 22062AD  23350.45814066  .00000896  00000-0  74401-4 0  9999,2 52857  53.2188  79.3474 0001587 111.3308 248.7853 15.08842476 83494,6917.873,95.437,540.836,538.64,0.0
52857.0,STARLINK-4199,PAYLOAD,2023-12-16 12:35:06,15.0884334,0.0001488,53.2184,79.0539,103.6105,256.5053,8.3647e-05,1.044e-05,0.0,0 STARLINK-4199,1 52857U 22062AD  23350.52438082  .00001044  00000-0  83647-4 0  9995,2 52857  53.2184  79.0539 0001488 103.6105 256.5053 15.08843340 83016,6917.87,95.437,540.765,538.706,0.0
52857.0,STARLINK-4199,PAYLOAD,2023-12-17 12:25:53,15.0884148,0.0001519,53.2185,74.5876,106.7642,253.3517,3.6116e-05,2.87e-06,0.0,0 STARLINK-4199,1 52857U 22062AD  23351.51798321  .00000287  00000-0  36116-4 0  9997,2 52857  53.2185  74.5876 0001519 106.7642 253.3517 15.08841480 83659,6917.876,95.437,540.792,538.69,0.0
52857.0,STARLINK-4199,PAYLOAD,2023-12-18 10:41:16,15.08851399,0.0001349,53.2193,70.4249,88.2974,271.8173,8.9359e-05,1.135e-05,0.0,0 STARLINK-4199,1 52857U 22062AD  23352.44533336  .00001135  00000-0  89359-4 0  9993,2 52857  53.2193  70.4249 0001349  88.2974 271.8173 15.08851399 83798,6917.846,95.437,540.644,538.777,0.0
52857.0,STARLINK-4199,PAYLOAD,2023-12-19 10:32:04,15.08839696,0.0001342,53.2191,65.9627,100.4265,259.6878,1.4581e-05,-5.6e-07,0.0,0 STARLINK-4199,1 52857U 22062AD  23353.43894437 -.00000056  00000-0  14581-4 0  9992,2 52857  53.2191  65.9627 0001342 100.4265 259.6878 15.08839696 83947,6917.881,95.438,540.675,538.818,0.0
52857.0,STARLINK-4199,PAYLOAD,2023-12-20 10:22:52,15.08835729,0.0001402,53.2188,61.5051,97.7261,262.389,-0.00016905,-2.977e-05,0.0,0 STARLINK-4199,1 52857U 22062AD  23354.43255732 -.00002977  00000-0 -16905-3 0  9998,2 52857  53.2188  61.5051 0001402  97.7261 262.3890 15.08835729 84092,6917.893,95.438,540.728,538.789,0.0
52857.0,STARLINK-4199,PAYLOAD,2023-12-21 11:49:01,15.08847539,0.000145,53.2187,56.7499,81.3397,278.776,0.00027237,4.05e-05,0.0,0 STARLINK-4199,1 52857U 22062AD  23355.49238271  .00004050  00000-0  27237-3 0  9996,2 52857  53.2187  56.7499 0001450  81.3397 278.7760 15.08847539 84252,6917.857,95.437,540.725,538.719,0.0
52857.0,STARLINK-4199,PAYLOAD,2023-12-21 22:56:44,15.08840963,0.0001565,53.2193,54.6703,122.7559,237.3584,9.9342e-05,1.293e-05,0.0,0 STARLINK-4199,1 52857U 22062AD  23355.95607132  .00001293  00000-0  99342-4 0  9996,2 52857  53.2193  54.6703 0001565 122.7559 237.3584 15.08840963 84328,6917.877,95.437,540.825,538.66,0.0
52857.0,STARLINK-4199,PAYLOAD,2023-12-22 11:39:49,15.08847407,0.0001439,53.2194,52.2915,100.8324,259.283,0.00014547,2.028e-05,0.0,0 STARLINK-4199,1 52857U 22062AD  23356.48598864  .00002028  00000-0  14547-3 0  9996,2 52857  53.2194  52.2915 0001439 100.8324 259.2830 15.08847407 83916,6917.858,95.437,540.718,538.727,0.0
52857.0,STARLINK-4199,PAYLOAD,2023-12-23 03:33:41,15.0884537,0.0001727,53.2201,49.3219,76.1321,283.9863,-5.8389e-05,-1.217e-05,0.0,0 STARLINK-4199,1 52857U 22062AD  23357.14839836 -.00001217  00000-0 -58389-4 0  9991,2 52857  53.2201  49.3219 0001727  76.1321 283.9863 15.08845370 84504,6917.864,95.437,540.924,538.534,0.0
52857.0,STARLINK-4199,PAYLOAD,2023-12-23 09:55:14,15.08844761,0.0001649,53.22,48.131,78.5048,281.6129,-6.2153e-05,-1.277e-05,0.0,0 STARLINK-4199,1 52857U 22062AD  23357.41335830 -.00001277  00000-0 -62153-4 0  9996,2 52857  53.2200  48.1310 0001649  78.5048 281.6129 15.08844761 84050,6917.866,95.437,540.872,538.59,0.0
52857.0,STARLINK-4199,PAYLOAD,2023-12-24 09:46:00,15.08845004,0.0001537,53.2198,43.6711,76.2062,283.9102,0.00015143,2.123e-05,0.0,0 STARLINK-4199,1 52857U 22062AD  23358.40695173  .00002123  00000-0  15143-3 0  9990,2 52857  53.2198  43.6711 0001537  76.2062 283.9102 15.08845004 84695,6917.865,95.437,540.793,538.667,0.0
52857.0,STARLINK-4199,PAYLOAD,2023-12-24 12:56:46,15.08853711,0.000154,53.2195,43.0669,89.9329,270.1839,7.907e-05,9.71e-06,0.0,0 STARLINK-4199,1 52857U 22062AD  23358.53942525  .00000971  00000-0  79070-4 0  9999,2 52857  53.2195  43.0669 0001540  89.9329 270.1839 15.08853711 84227,6917.838,95.437,540.769,538.638,0.0
52857.0,STARLINK-4199,PAYLOAD,2023-12-25 08:01:24,15.08832698,0.0001054,53.2198,39.4968,101.5026,258.6084,0.00016592,2.353e-05,0.0,0 STARLINK-4199,1 52857U 22062AD  23359.33431512  .00002353  00000-0  16592-3 0  9992,2 52857  53.2198  39.4968 0001054 101.5026 258.6084 15.08832698 84837,6917.903,95.438,540.497,539.039,0.0
52857.0,STARLINK-4199,PAYLOAD,2023-12-26 09:27:35,15.08830655,0.0001404,53.2193,34.739,109.4795,250.6349,7.6451e-05,9.29e-06,0.0,0 STARLINK-4199,1 52857U 22062AD  23360.39416061  .00000929  00000-0  76451-4 0  9990,2 52857  53.2193  34.7390 0001404 109.4795 250.6349 15.08830655 84992,6917.909,95.438,540.745,538.803,0.0
52857.0,STARLINK-4199,PAYLOAD,2023-12-27 10:53:45,15.08843305,0.0001683,53.219,29.9907,93.26,266.8585,0.00012068,1.633e-05,0.0,0 STARLINK-4199,1 52857U 22062AD  23361.45399443  .00001633  00000-0  12068-3 0  9998,2 52857  53.2190  29.9907 0001683  93.2600 266.8585 15.08843305 85159,6917.87,95.437,540.9,538.571,0.0
52857.0,STARLINK-4199,PAYLOAD,2023-12-28 02:47:37,15.08832278,0.0001768,53.219,27.0141,99.2356,260.8836,5.5468e-05,5.95e-06,0.0,0 STARLINK-4199,1 52857U 22062AD  23362.11640482  .00000595  00000-0  55468-4 0  9992,2 52857  53.2190  27.0141 0001768  99.2356 260.8836 15.08832278 85257,6917.904,95.438,540.992,538.546,0.0
52857.0,STARLINK-4199,PAYLOAD,2023-12-28 09:09:09,15.08837292,0.0001623,53.2186,25.8242,92.5616,267.5561,0.00010228,1.34e-05,0.0,0 STARLINK-4199,1 52857U 22062AD  23362.38136173  .00001340  00000-0  10228-3 0  9991,2 52857  53.2186  25.8242 0001623  92.5616 267.5561 15.08837292 84805,6917.889,95.438,540.876,538.631,0.0
52857.0,STARLINK-4199,PAYLOAD,2023-12-29 08:59:57,15.08839062,0.0001637,53.2183,21.3639,91.2178,268.9001,2.9542e-05,1.82e-06,0.0,0 STARLINK-4199,1 52857U 22062AD  23363.37496567  .00000182  00000-0  29542-4 0  9990,2 52857  53.2183  21.3639 0001637  91.2178 268.9001 15.08839062 85449,6917.883,95.438,540.881,538.616,0.0
52857.0,STARLINK-4199,PAYLOAD,2023-12-30 08:50:43,15.0884816,0.000169,53.2186,16.9031,85.3256,274.7929,0.00010347,1.359e-05,0.0,0 STARLINK-4199,1 52857U 22062AD  23364.36855772  .00001359  00000-0  10347-3 0  9996,2 52857  53.2186  16.9031 0001690  85.3256 274.7929 15.08848160 85597,6917.855,95.437,540.89,538.551,0.0
52857.0,STARLINK-4199,PAYLOAD,2023-12-31 00:44:35,15.08835824,0.0001821,53.2189,13.9294,81.2277,278.8922,1.9297e-05,1.9e-07,0.0,0 STARLINK-4199,1 52857U 22062AD  23365.03096929  .00000019  00000-0  19297-4 0  9998,2 52857  53.2189  13.9294 0001821  81.2277 278.8922 15.08835824 85694,6917.893,95.438,541.018,538.498,0.0
52857.0,STARLINK-4199,PAYLOAD,2023-12-31 07:06:08,15.08837084,0.0001776,53.2189,12.7401,82.3533,277.7661,2.8785e-05,1.7e-06,0.0,0 STARLINK-4199,1 52857U 22062AD  23365.29592917  .00000170  00000-0  28785-4 0  9994,2 52857  53.2189  12.7401 0001776  82.3533 277.7661 15.08837084 85246,6917.889,95.438,540.983,538.526,0.0
52857.0,STARLINK-4199,PAYLOAD,2024-01-01 03:46:08,15.08847453,0.000163,53.2177,8.8753,80.9101,279.2076,3.0571e-06,-2.39e-06,0.0,0 STARLINK-4199,1 52857U 22062AD  24001.15704300 -.00000239  00000-0  30571-5 0  9992,2 52857  53.2177   8.8753 0001630  80.9101 279.2076 15.08847453 85869,6917.858,95.437,540.85,538.595,0.0
52857.0,STARLINK-4199,PAYLOAD,2024-01-01 06:56:54,15.08851238,0.0001715,53.2186,8.2805,84.3447,275.7741,2.7784e-05,1.54e-06,0.0,0 STARLINK-4199,1 52857U 22062AD  24001.28951983  .00000154  00000-0  27784-4 0  9993,2 52857  53.2186   8.2805 0001715  84.3447 275.7741 15.08851238 85390,6917.846,95.437,540.897,538.525,0.0
52857.0,STARLINK-4199,PAYLOAD,2024-01-02 03:36:55,15.08838352,0.0001744,53.2186,4.4146,106.4386,253.6798,7.3227e-05,8.77e-06,0.0,0 STARLINK-4199,1 52857U 22062AD  24002.15064493  .00000877  00000-0  73227-4 0  9996,2 52857  53.2186   4.4146 0001744 106.4386 253.6798 15.08838352 86015,6917.885,95.438,540.957,538.544,0.0
52857.0,STARLINK-4199,PAYLOAD,2024-01-02 06:47:41,15.08841753,0.0001781,53.2188,3.8193,100.1922,259.9271,9.8399e-05,1.278e-05,0.0,0 STARLINK-4199,1 52857U 22062AD  24002.28312337  .00001278  00000-0  98399-4 0  9996,2 52857  53.2188   3.8193 0001781 100.1922 259.9271 15.08841753 85541,6917.875,95.437,540.972,538.508,0.0
52857.0,STARLINK-4199,PAYLOAD,2024-01-03 06:38:28,15.08844277,0.0001761,53.2191,359.3589,100.3761,259.743,2.6556e-06,-2.46e-06,0.0,0 STARLINK-4199,1 52857U 22062AD  24003.27672382 -.00000246  00000-0  26556-5 0  9997,2 52857  53.2191 359.3589 0001761 100.3761 259.7430 15.08844277 86184,6917.867,95.437,540.951,538.514,0.0
52857.0,STARLINK-4199,PAYLOAD,2024-01-04 04:53:53,15.08834605,0.000167,53.2188,355.1982,101.2216,258.8964,2.775e-06,-2.44e-06,0.0,0 STARLINK-4199,1 52857U 22062AD  24004.20409228 -.00000244  00000-0  27750-5 0  9993,2 52857  53.2188 355.1982 0001670 101.2216 258.8964 15.08834605 86327,6917.897,95.438,540.917,538.607,0.0
52857.0,STARLINK-4199,PAYLOAD,2024-01-04 06:29:16,15.08834536,0.0001561,53.2187,354.8992,97.2357,262.8812,8.3415e-06,-1.55e-06,0.0,0 STARLINK-4199,1 52857U 22062AD  24004.27033231 -.00000155  00000-0  83415-5 0  9998,2 52857  53.2187 354.8992 0001561  97.2357 262.8812 15.08834536 85848,6917.897,95.438,540.842,538.682,0.0
52857.0,STARLINK-4199,PAYLOAD,2024-01-05 07:55:26,15.08849557,0.0001885,53.2182,350.1406,100.6578,259.4626,1.7068e-05,-1.6e-07,0.0,0 STARLINK-4199,1 52857U 22062AD  24005.33016484 -.00000016  00000-0  17068-4 0  9993,2 52857  53.2182 350.1406 0001885 100.6578 259.4626 15.08849557 86491,6917.851,95.437,541.02,538.412,0.0
